{"type": "FeatureCollection", "features": [ {"type": "Feature", "properties": {"norad_id": 30317, "name": "FENGYUN 1C DEB", "group": "fengyun-1c-debris", "lat": 61.83029519902503, "lon": -36.89667707360551, "alt_km": 873.6357429026566, "timestamp": "2025-12-05T04:52:15.567918+00:00", "meta": {"OBJECT_NAME": "FENGYUN 1C DEB", "OBJECT_ID": "1999-025AAE", "EPOCH": "2025-12-04T13:12:39.582432", "MEAN_MOTION": 14.06941185, "ECCENTRICITY": 0.0024259, "INCLINATION": 98.7863, "RA_OF_ASC_NODE": 339.256, "ARG_OF_PERICENTER": 300.883, "MEAN_ANOMALY": 58.9954, "EPHEMERIS_TYPE": 0, "CLASSIFICATION_TYPE": "U", "NORAD_CAT_ID": 30317, "ELEMENT_SET_NO": 999, "REV_AT_EPOCH": 96898, "BSTAR": 0.00022279, "MEAN_MOTION_DOT": 3.29e-06, "MEAN_MOTION_DDOT": 0}, "tle": {"line1": "1 30317U 99025AAE 25338.55045813  .00000329  00000+0  22279-3 0  9999", "line2": "2 30317  98.7863 339.2560 0024259 300.8830  58.9954 14.06941185968988"}}, "geometry": {"type": "Point", "coordinates": [-36.89667707360551, 61.83029519902503]}}, {"type": "Feature", "properties": {"norad_id": 30320, "name": "FENGYUN 1C DEB", "group": "fengyun-1c-debris", "lat": 9.606305133862847, "lon": 36.91757120641481, "alt_km": 863.7073559354312, "timestamp": "2025-12-05T04:52:15.567927+00:00", "meta": {"OBJECT_NAME": "FENGYUN 1C DEB", "OBJECT_ID": "1999-025AAH", "EPOCH": "2025-12-04T03:12:22.514688", "MEAN_MOTION": 13.98551413, "ECCENTRICITY": 0.0085396, "INCLINATION": 99.1896, "RA_OF_ASC_NODE": 37.4163, "ARG_OF_PERICENTER": 318.5037, "MEAN_ANOMALY": 69.4614, "EPHEMERIS_TYPE": 0, "CLASSIFICATION_TYPE": "U", "NORAD_CAT_ID": 30320, "ELEMENT_SET_NO": 999, "REV_AT_EPOCH": 96287, "BSTAR": 0.0001791248, "MEAN_MOTION_DOT": 2.19e-06, "MEAN_MOTION_DDOT": 0}, "tle": {"line1": "1 30320U 99025AAH 25338.13359392  .00000219  00000+0  17912-3 0  9993", "line2": "2 30320  99.1896  37.4163 0085396 318.5037  69.4614 13.98551413962876"}}, "geometry": {"type": "Point", "coordinates": [36.91757120641481, 9.606305133862847]}}, {"type": "Feature", "properties": {"norad_id": 30321, "name": "FENGYUN 1C DEB", "group": "fengyun-1c-debris", "lat": -66.08927320615122, "lon": -1.4602662759515752, "alt_km": 807.9639186235481, "timestamp": "2025-12-05T04:52:15.567936+00:00", "meta": {"OBJECT_NAME": "FENGYUN 1C DEB", "OBJECT_ID": "1999-025AAJ", "EPOCH": "2025-12-04T12:49:51.892032", "MEAN_MOTION": 14.16624522, "ECCENTRICITY": 0.0059819, "INCLINATION": 98.656, "RA_OF_ASC_NODE": 337.7943, "ARG_OF_PERICENTER": 260.7287, "MEAN_ANOMALY": 224.8518, "EPHEMERIS_TYPE": 0, "CLASSIFICATION_TYPE": "U", "NORAD_CAT_ID": 30321, "ELEMENT_SET_NO": 999, "REV_AT_EPOCH": 97427, "BSTAR": 0.00056377, "MEAN_MOTION_DOT": 1.101e-05, "MEAN_MOTION_DDOT": 0}, "tle": {"line1": "1 30321U 99025AAJ 25338.53462838  .00001101  00000+0  56377-3 0  9997", "line2": "2 30321  98.6560 337.7943 0059819 260.7287 224.8518 14.16624522974277"}}, "geometry": {"type": "Point", "coordinates": [-1.4602662759515752, -66.08927320615122]}}, {"type": "Feature", "properties": {"norad_id": 30322, "name": "FENGYUN 1C DEB", "group": "fengyun-1c-debris", "lat": -48.16364293409536, "lon": 7.933680951666711, "alt_km": 814.9946778625181, "timestamp": "2025-12-05T04:52:15.567945+00:00", "meta": {"OBJECT_NAME": "FENGYUN 1C DEB", "OBJECT_ID": "1999-025AAK", "EPOCH": "2025-12-04T14:06:40.974336", "MEAN_MOTION": 14.0603963, "ECCENTRICITY": 0.0127138, "INCLINATION": 98.3988, "RA_OF_ASC_NODE": 196.8618, "ARG_OF_PERICENTER": 276.4485, "MEAN_ANOMALY": 82.2221, "EPHEMERIS_TYPE": 0, "CLASSIFICATION_TYPE": "U", "NORAD_CAT_ID": 30322, "ELEMENT_SET_NO": 999, "REV_AT_EPOCH": 96085, "BSTAR": 0.0028491, "MEAN_MOTION_DOT": 4.989e-05, "MEAN_MOTION_DDOT": 0}, "tle": {"line1": "1 30322U 99025AAK 25338.58797424  .00004989  00000+0  28491-2 0  9997", "line2": "2 30322  98.3988 196.8618 0127138 276.4485  82.2221 14.06039630960851"}}, "geometry": {"type": "Point", "coordinates": [7.933680951666711, -48.16364293409536]}}, {"type": "Feature", "properties": {"norad_id": 30325, "name": "FENGYUN 1C DEB", "group": "fengyun-1c-debris", "lat": 2.676550590315654, "lon": 179.19776045707187, "alt_km": 866.6963695128252, "timestamp": "2025-12-05T04:52:15.567954+00:00", "meta": {"OBJECT_NAME": "FENGYUN 1C DEB", "OBJECT_ID": "1999-025AAL", "EPOCH": "2025-12-04T07:34:52.431168", "MEAN_MOTION": 14.09100073, "ECCENTRICITY": 0.0015207, "INCLINATION": 98.7337, "RA_OF_ASC_NODE": 357.9263, "ARG_OF_PERICENTER": 278.6587, "MEAN_ANOMALY": 81.286, "EPHEMERIS_TYPE": 0, "CLASSIFICATION_TYPE": "U", "NORAD_CAT_ID": 30325, "ELEMENT_SET_NO": 999, "REV_AT_EPOCH": 96897, "BSTAR": 0.0001205, "MEAN_MOTION_DOT": 1.66e-06, "MEAN_MOTION_DDOT": 0}, "tle": {"line1": "1 30325U 99025AAL 25338.31588462  .00000166  00000+0  12050-3 0  9999", "line2": "2 30325  98.7337 357.9263 0015207 278.6587  81.2860 14.09100073968974"}}, "geometry": {"type": "Point", "coordinates": [179.19776045707187, 2.676550590315654]}}, {"type": "Feature", "properties": {"norad_id": 30326, "name": "FENGYUN 1C DEB", "group": "fengyun-1c-debris", "lat": 21.154218847179852, "lon": -136.285202594639, "alt_km": 853.0504805823339, "timestamp": "2025-12-05T04:52:15.567963+00:00", "meta": {"OBJECT_NAME": "FENGYUN 1C DEB", "OBJECT_ID": "1999-025AAM", "EPOCH": "2025-12-04T16:38:16.197792", "MEAN_MOTION": 13.85469333, "ECCENTRICITY": 0.0142599, "INCLINATION": 98.6544, "RA_OF_ASC_NODE": 226.6226, "ARG_OF_PERICENTER": 52.3796, "MEAN_ANOMALY": 309.0206, "EPHEMERIS_TYPE": 0, "CLASSIFICATION_TYPE": "U", "NORAD_CAT_ID": 30326, "ELEMENT_SET_NO": 999, "REV_AT_EPOCH": 95344, "BSTAR": 0.00030148, "MEAN_MOTION_DOT": 3.33e-06, "MEAN_MOTION_DDOT": 0}, "tle": {"line1": "1 30326U 99025AAM 25338.69324303  .00000333  00000+0  30148-3 0  9997", "line2": "2 30326  98.6544 226.6226 0142599  52.3796 309.0206 13.85469333953440"}}, "geometry": {"type": "Point", "coordinates": [-136.285202594639, 21.154218847179852]}}, {"type": "Feature", "properties": {"norad_id": 30327, "name": "FENGYUN 1C DEB", "group": "fengyun-1c-debris", "lat": 81.16498321766085, "lon": 126.75861185202807, "alt_km": 798.8721444427747, "timestamp": "2025-12-05T04:52:15.567972+00:00", "meta": {"OBJECT_NAME": "FENGYUN 1C DEB", "OBJECT_ID": "1999-025AAN", "EPOCH": "2025-12-02T12:39:45.154080", "MEAN_MOTION": 14.17871426, "ECCENTRICITY": 0.01164753, "INCLINATION": 98.4441, "RA_OF_ASC_NODE": 231.3322, "ARG_OF_PERICENTER": 172.8137, "MEAN_ANOMALY": 312.7608, "EPHEMERIS_TYPE": 0, "CLASSIFICATION_TYPE": "U", "NORAD_CAT_ID": 30327, "ELEMENT_SET_NO": 999, "REV_AT_EPOCH": 96298, "BSTAR": 0.0021839085, "MEAN_MOTION_DOT": 4.732e-05, "MEAN_MOTION_DDOT": 0}, "tle": {"line1": "1 30327U 99025AAN 25336.52760595  .00004732  00000+0  21839-2 0  9998", "line2": "2 30327  98.4441 231.3322 0116475 172.8137 312.7608 14.17871426962988"}}, "geometry": {"type": "Point", "coordinates": [126.75861185202807, 81.16498321766085]}}, {"type": "Feature", "properties": {"norad_id": 30328, "name": "FENGYUN 1C DEB", "group": "fengyun-1c-debris", "lat": 36.813001117932245, "lon": -17.016209138355766, "alt_km": 851.0132687487767, "timestamp": "2025-12-05T04:52:15.568000+00:00", "meta": {"OBJECT_NAME": "FENGYUN 1C DEB", "OBJECT_ID": "1999-025AAP", "EPOCH": "2025-12-04T13:57:26.720928", "MEAN_MOTION": 14.12467522, "ECCENTRICITY": 0.0005336, "INCLINATION": 98.6867, "RA_OF_ASC_NODE": 348.9518, "ARG_OF_PERICENTER": 174.5322, "MEAN_ANOMALY": 304.9399, "EPHEMERIS_TYPE": 0, "CLASSIFICATION_TYPE": "U", "NORAD_CAT_ID": 30328, "ELEMENT_SET_NO": 999, "REV_AT_EPOCH": 97149, "BSTAR": 0.00022447, "MEAN_MOTION_DOT": 3.72e-06, "MEAN_MOTION_DDOT": 0}, "tle": {"line1": "1 30328U 99025AAP 25338.58155927  .00000372  00000+0  22447-3 0  9997", "line2": "2 30328  98.6867 348.9518 0005336 174.5322 304.9399 14.12467522971492"}}, "geometry": {"type": "Point", "coordinates": [-17.016209138355766, 36.813001117932245]}}, {"type": "Feature", "properties": {"norad_id": 30329, "name": "FENGYUN 1C DEB", "group": "fengyun-1c-debris", "lat": 65.9075178934201, "lon": -122.75113747720975, "alt_km": 831.6598963404867, "timestamp": "2025-12-05T04:52:15.568009+00:00", "meta": {"OBJECT_NAME": "FENGYUN 1C DEB", "OBJECT_ID": "1999-025AAQ", "EPOCH": "2025-12-04T08:21:19.594944", "MEAN_MOTION": 13.86727664, "ECCENTRICITY": 0.0142387, "INCLINATION": 99.2613, "RA_OF_ASC_NODE": 257.8031, "ARG_OF_PERICENTER": 57.8996, "MEAN_ANOMALY": 64.3321, "EPHEMERIS_TYPE": 0, "CLASSIFICATION_TYPE": "U", "NORAD_CAT_ID": 30329, "ELEMENT_SET_NO": 999, "REV_AT_EPOCH": 95294, "BSTAR": 0.00076378, "MEAN_MOTION_DOT": 9.2e-06, "MEAN_MOTION_DDOT": 0}, "tle": {"line1": "1 30329U 99025AAQ 25338.34814346  .00000920  00000+0  76378-3 0  9990", "line2": "2 30329  99.2613 257.8031 0142387  57.8996  64.3321 13.86727664952942"}}, "geometry": {"type": "Point", "coordinates": [-122.75113747720975, 65.9075178934201]}}, {"type": "Feature", "properties": {"norad_id": 30330, "name": "FENGYUN 1C DEB", "group": "fengyun-1c-debris", "lat": -50.011104035100324, "lon": 141.238112402699, "alt_km": 839.0112568314598, "timestamp": "2025-12-05T04:52:15.568018+00:00", "meta": {"OBJECT_NAME": "FENGYUN 1C DEB", "OBJECT_ID": "1999-025AAR", "EPOCH": "2025-12-04T11:07:55.401024", "MEAN_MOTION": 13.82023782, "ECCENTRICITY": 0.0187549, "INCLINATION": 98.886, "RA_OF_ASC_NODE": 331.2905, "ARG_OF_PERICENTER": 207.1307, "MEAN_ANOMALY": 307.3614, "EPHEMERIS_TYPE": 0, "CLASSIFICATION_TYPE": "U", "NORAD_CAT_ID": 30330, "ELEMENT_SET_NO": 999, "REV_AT_EPOCH": 94543, "BSTAR": 0.0020009, "MEAN_MOTION_DOT": 2.418e-05, "MEAN_MOTION_DDOT": 0}, "tle": {"line1": "1 30330U 99025AAR 25338.46383566  .00002418  00000+0  20009-2 0  9993", "line2": "2 30330  98.8860 331.2905 0187549 207.1307 307.3614 13.82023782945432"}}, "geometry": {"type": "Point", "coordinates": [141.238112402699, -50.011104035100324]}}]}